[
    {
        "Altitude(m)": 604234.604168917,
        "Argument of Periapsis(deg)": 0.0,
        "Eccentricity": 0.0,
        "Inclination(deg)": 60.0,
        "Latitude(deg)": 14.117206903896014,
        "Longitude(deg)": -3.272696526947912,
        "Mean Anomaly(deg)": -196.36359999999996,
        "RAAN(deg)": 285.0,
        "Satellite Name": "Test1 1264",
        "Satellite Number": 1264,
        "Semi-Major Axis(m)": 6980739.136638005,
        "Time(s)": 0
    },
    {
        "Altitude(m)": 604223.4329961351,
        "Argument of Periapsis(deg)": 0.00010418945913296404,
        "Eccentricity": 0.0,
        "Inclination(deg)": 60.0,
        "Latitude(deg)": 13.582343751981476,
        "Longitude(deg)": -2.985786445622425,
        "Mean Anomaly(deg)": -195.74349385453812,
        "RAAN(deg)": 284.9995799508602,
        "Satellite Name": "Test1 1264",
        "Satellite Number": 1264,
        "Semi-Major Axis(m)": 6980739.136638005,
        "Time(s)": 10
    }
]